H1 CPF  1  DLR 2022 07 28 10  7092 technosat            
H2  1704205 6203    42829 2022 07 28 00 00 00 2022 08 04 00 00 00    60 1 1  0 0 0
H9
10 0 59789  50400.000000  0       1078024.012       3501935.627      -5927783.851
10 0 59789  50460.000000  0       1085760.271       3100001.161      -6146466.634
10 0 59789  50520.000000  0       1085359.758       2685007.169      -6339131.654
10 0 59789  50580.000000  0       1076719.944       2258774.441      -6504975.600
10 0 59789  50640.000000  0       1059788.902       1823169.789      -6643308.498
10 0 59789  50700.000000  0       1034565.823       1380097.830      -6753556.373
10 0 59789  50760.000000  0       1001101.250        931492.605      -6835263.350
10 0 59789  50820.000000  0        959497.065        479309.204      -6888093.288
10 0 59789  50880.000000  0        909906.194         25515.300      -6911830.992
10 0 59789  50940.000000  0        852532.000       -427917.373      -6906382.899
10 0 59789  51000.000000  0        787627.401       -879021.431      -6871777.250
10 0 59789  51060.000000  0        715493.775      -1325842.195      -6808163.874
10 0 59789  51120.000000  0        636479.580      -1766445.971      -6715813.495
10 0 59789  51180.000000  0        550978.741      -2198928.189      -6595116.688
10 0 59789  51240.000000  0        459428.768      -2621421.562      -6446582.471
10 0 59789  51300.000000  0        362308.563      -3032104.182      -6270836.289
10 0 59789  51360.000000  0        260136.018      -3429207.331      -6068617.462
10 0 59789  51420.000000  0        153465.434      -3811023.037      -5840776.244
10 0 59789  51480.000000  0         42884.718      -4175911.425      -5588270.488
10 0 59789  51540.000000  0        -70987.647      -4522307.824      -5312161.875
10 0 59789  51600.000000  0       -187505.839      -4848729.600      -5013611.694
10 0 59789  51660.000000  0       -306000.122      -5153782.654      -4693876.197
10 0 59789  51720.000000  0       -425780.433      -5436167.587      -4354301.526
10 0 59789  51780.000000  0       -546140.120      -5694685.459      -3996318.225
10 0 59789  51840.000000  0       -666359.804      -5928243.114      -3621435.366
10 0 59789  51900.000000  0       -785711.355      -6135858.041      -3231234.316
10 0 59789  51960.000000  0       -903461.963      -6316662.770      -2827362.192
10 0 59789  52020.000000  0      -1018878.280      -6469908.806      -2411524.980
10 0 59789  52080.000000  0      -1131230.604      -6594970.023      -1985480.306
10 0 59789  52140.000000  0      -1239797.074      -6691345.456      -1551029.944
10 0 59789  52200.000000  0      -1343867.853      -6758661.519      -1110012.117
10 0 59789  52260.000000  0      -1442749.293      -6796673.616       -664293.588
10 0 59789  52320.000000  0      -1535768.032      -6805267.134       -215761.627
10 0 59789  52380.000000  0      -1622275.023      -6784457.836        233684.138
10 0 59789  52440.000000  0      -1701649.464      -6734391.624        682139.933
10 0 59789  52500.000000  0      -1773302.598      -6655343.682       1127706.092
10 0 59789  52560.000000  0      -1836681.352      -6547716.996       1568495.289
10 0 59789  52620.000000  0      -1891271.796      -6412040.265       2002640.716
10 0 59789  52680.000000  0      -1936602.403      -6248965.200       2428304.165
10 0 59789  52740.000000  0      -1972247.080      -6059263.232       2843683.935
10 0 59789  52800.000000  0      -1997827.964      -5843821.672       3247022.554
10 0 59789  52860.000000  0      -2013017.968      -5603639.352       3636614.264
10 0 59789  52920.000000  0      -2017543.033      -5339821.776       4010812.250
10 0 59789  52980.000000  0      -2011184.125      -5053575.800       4368035.544
10 0 59789  53040.000000  0      -1993778.969      -4746203.928       4706775.625
10 0 59789  53100.000000  0      -1965223.489      -4419098.216       5025602.718
10 0 59789  53160.000000  0      -1925472.966      -4073733.759       5323171.779
10 0 59789  53220.000000  0      -1874542.853      -3711661.775       5598228.031
10 0 59789  53280.000000  0      -1812509.259      -3334502.453       5849612.024
10 0 59789  53340.000000  0      -1739509.114      -2943937.585       6076264.295
10 0 59789  53400.000000  0      -1655740.040      -2541703.006       6277229.595
10 0 59789  53460.000000  0      -1561459.916      -2129580.889       6451660.704
10 0 59789  53520.000000  0      -1456986.167      -1709391.864       6598821.866
10 0 59789  53580.000000  0      -1342694.745      -1282986.937       6718091.746
10 0 59789  53640.000000  0      -1219018.838       -852239.342       6808965.855
10 0 59789  53700.000000  0      -1086447.295       -419036.392       6871058.513
10 0 59789  53760.000000  0       -945522.740         14728.633       6904104.425
10 0 59789  53820.000000  0       -796839.402        447164.671       6907959.857
10 0 59789  53880.000000  0       -641040.641        876391.077       6882603.290
10 0 59789  53940.000000  0       -478816.199       1300545.723       6828135.581
10 0 59789  54000.000000  0       -310899.206       1717793.016       6744779.675
10 0 59789  54060.000000  0       -138062.914       2126331.828       6632879.834
10 0 59789  54120.000000  0         38882.806       2524403.227       6492900.341
10 0 59789  54180.000000  0        219095.160       2910298.021       6325423.826
10 0 59789  54240.000000  0        401702.347       3282364.181       6131149.110
10 0 59789  54300.000000  0        585807.684       3639014.038       5910888.545
10 0 59789  54360.000000  0        770493.918       3978731.191       5665564.865
10 0 59789  54420.000000  0        954827.698       4300077.119       5396207.611
10 0 59789  54480.000000  0       1137864.224       4601697.533       5103949.091
10 0 59789  54540.000000  0       1318652.000       4882328.393       4790019.827
10 0 59789  54600.000000  0       1496237.688       5140801.446       4455743.521
10 0 59789  54660.000000  0       1669671.008       5376049.339       4102531.748
10 0 59789  54720.000000  0       1838009.779       5587110.411       3731878.302
10 0 59789  54780.000000  0       2000325.085       5773133.138       3345352.965
10 0 59789  54840.000000  0       2155706.239       5933379.924       2944594.672
10 0 59789  54900.000000  0       2303265.706       6067230.334       2531304.551
10 0 59789  54960.000000  0       2442144.118       6174183.843       2107238.639
10 0 59789  55020.000000  0       2571515.153       6253861.945       1674200.182
10 0 59789  55080.000000  0       2690590.185       6306009.617       1234031.739
10 0 59789  55140.000000  0       2798622.802       6330496.198        788607.125
10 0 59789  55200.000000  0       2894913.162       6327315.692        339823.201
10 0 59789  55260.000000  0       2978812.134       6296586.475       -110408.476
10 0 59789  55320.000000  0       3049725.243       6238550.384       -560170.118
10 0 59789  55380.000000  0       3107116.313       6153571.131      -1007546.187
10 0 59789  55440.000000  0       3150510.808       6042132.156      -1450631.825
10 0 59789  55500.000000  0       3179498.884       5904833.939      -1887541.261
10 0 59789  55560.000000  0       3193738.124       5742390.702      -2316416.133
10 0 59789  55620.000000  0       3192955.920       5555626.551      -2735433.664
10 0 59789  55680.000000  0       3176951.476       5345471.075      -3142814.647
10 0 59789  55740.000000  0       3145597.409       5112954.419      -3536831.165
10 0 59789  55800.000000  0       3098840.982       4859201.938      -3915813.967
10 0 59789  55860.000000  0       3036704.982       4585428.497      -4278159.564
10 0 59789  55920.000000  0       2959288.175       4292932.361      -4622337.032
10 0 59789  55980.000000  0       2866765.363       3983088.725      -4946894.383
10 0 59789  56040.000000  0       2759387.125       3657342.985      -5250464.539
10 0 59789  56100.000000  0       2637479.181       3317203.747      -5531770.946
10 0 59789  56160.000000  0       2501441.368       2964235.572      -5789632.723
10 0 59789  56220.000000  0       2351746.235       2600051.584      -6022969.359
10 0 59789  56280.000000  0       2188937.281       2226305.920      -6230804.956
10 0 59789  56340.000000  0       2013626.876       1844686.096      -6412271.945
10 0 59789  56400.000000  0       1826493.902       1456905.356      -6566614.382
10 0 59789  56460.000000  0       1628281.096       1064694.953      -6693190.806
10 0 59789  56520.000000  0       1419792.036        669796.463      -6791476.641
10 0 59789  56580.000000  0       1201887.822        273954.120      -6861066.179
10 0 59789  56640.000000  0        975483.446       -121092.863      -6901674.037
10 0 59789  56700.000000  0        741543.924       -513617.872      -6913136.075
10 0 59789  56760.000000  0        501080.211       -901914.289      -6895409.866
10 0 59789  56820.000000  0        255144.895      -1284302.748      -6848574.743
10 0 59789  56880.000000  0          4827.684      -1659138.216      -6772831.386
10 0 59789  56940.000000  0       -248749.333      -2024816.903      -6668501.082
10 0 59789  57000.000000  0       -504436.680      -2379783.080      -6536024.485
10 0 59789  57060.000000  0       -761062.639      -2722535.682      -6375959.830
10 0 59789  57120.000000  0      -1017438.503      -3051634.581      -6188980.644
10 0 59789  57180.000000  0      -1272363.964      -3365706.567      -5975873.119
10 0 59789  57240.000000  0      -1524632.634      -3663451.077      -5737533.041
10 0 59789  57300.000000  0      -1773037.665      -3943645.638      -5474962.297
10 0 59789  57360.000000  0      -2016377.464      -4205151.008      -5189264.940
10 0 59789  57420.000000  0      -2253461.477      -4446915.977      -4881642.776
10 0 59789  57480.000000  0      -2483115.997      -4667981.734      -4553390.499
10 0 59789  57540.000000  0      -2704189.941      -4867485.823      -4205890.426
99
